$$SOE
2460147.500000000, A.D. 2023-Jul-22 00:00:00.0000, -8.757374719509810E+07, -2.662523810271104E+08, -2.042101653686570E+07,
2460154.500000000, A.D. 2023-Jul-29 00:00:00.0000, -7.337961982312746E+07, -2.690452792453009E+08, -1.948594052273999E+07,
2460161.500000000, A.D. 2023-Aug-05 00:00:00.0000, -5.902260438967150E+07, -2.712404958431064E+08, -1.850758095723927E+07,
2460168.500000000, A.D. 2023-Aug-12 00:00:00.0000, -4.453267721703060E+07, -2.728243638039433E+08, -1.748751082998265E+07,
2460175.500000000, A.D. 2023-Aug-19 00:00:00.0000, -2.994116513481652E+07, -2.737851868639269E+08, -1.642750772432275E+07,
2460182.500000000, A.D. 2023-Aug-26 00:00:00.0000, -1.528057915277885E+07, -2.741134076497619E+08, -1.532954986071174E+07,
2460189.500000000, A.D. 2023-Sep-02 00:00:00.0000, -5.844241136702830E+05, -2.738017582795824E+08, -1.419580940567766E+07,
2460196.500000000, A.D. 2023-Sep-09 00:00:00.0000, 1.411301347006824E+07, -2.728453893762264E+08, -1.302864301285385E+07,
2460203.500000000, A.D. 2023-Sep-16 00:00:00.0000, 2.877689653477349E+07, -2.712419737985661E+08, -1.183057965243979E+07,
2460210.500000000, A.D. 2023-Sep-23 00:00:00.0000, 4.337208420019184E+07, -2.689917815573005E+08, -1.060430586073790E+07,
2460217.500000000, A.D. 2023-Sep-30 00:00:00.0000, 5.786338940402048E+07, -2.660977221434405E+08, -9.352648480019078E+06,
2460224.500000000, A.D. 2023-Oct-07 00:00:00.0000, 7.221584022483405E+07, -2.625653530321662E+08, -8.078554994308472E+06,
2460231.500000000, A.D. 2023-Oct-14 00:00:00.0000, 8.639494076884553E+07, -2.584028567985358E+08, -6.785072175216824E+06,
2460238.500000000, A.D. 2023-Oct-21 00:00:00.0000, 1.003669295735121E+08, -2.536209853364183E+08, -5.475323609760448E+06,
2460245.500000000, A.D. 2023-Oct-28 00:00:00.0000, 1.140990289185656E+08, -2.482329699951255E+08, -4.152486244537190E+06,
2460252.500000000, A.D. 2023-Nov-04 00:00:00.0000, 1.275596789027666E+08, -2.422544004135688E+08, -2.819766369924262E+06,
2460259.500000000, A.D. 2023-Nov-11 00:00:00.0000, 1.407187520550144E+08, -2.357030755104370E+08, -1.480375592235610E+06,
2460266.500000000, A.D. 2023-Nov-18 00:00:00.0000, 1.535477449332164E+08, -2.285988302773452E+08, -1.375072903194577E+05,
2460273.500000000, A.D. 2023-Nov-25 00:00:00.0000, 1.660199437820694E+08, -2.209633424995831E+08, 1.205685996596262E+06,
2460280.500000000, A.D. 2023-Dec-02 00:00:00.0000, 1.781105621190777E+08, -2.128199239437928E+08, 2.546113848280102E+06,
2460287.500000000, A.D. 2023-Dec-09 00:00:00.0000, 1.897968490486276E+08, -2.041933007878717E+08, 3.880767555974841E+06,
2460294.500000000, A.D. 2023-Dec-16 00:00:00.0000, 2.010581681921930E+08, -1.951093880052886E+08, 5.206737726697624E+06,
2460301.500000000, A.D. 2023-Dec-23 00:00:00.0000, 2.118760480085576E+08, -1.855950615871499E+08, 6.521229720485501E+06,
2460308.500000000, A.D. 2023-Dec-30 00:00:00.0000, 2.222342033193051E+08, -1.756779318146437E+08, 7.821576998555884E+06,
2460315.500000000, A.D. 2024-Jan-06 00:00:00.0000, 2.321185280418053E+08, -1.653861237636147E+08, 9.105252289552949E+06,
2460322.500000000, A.D. 2024-Jan-13 00:00:00.0000, 2.415170645787496E+08, -1.547480701413532E+08, 1.036987613664894E+07,
2460329.500000000, A.D. 2024-Jan-20 00:00:00.0000, 2.504199537397041E+08, -1.437923160936401E+08, 1.161322302535229E+07,
2460336.500000000, A.D. 2024-Jan-27 00:00:00.0000, 2.588193660573692E+08, -1.325473374622740E+08, 1.283322544104256E+07,
2460343.500000000, A.D. 2024-Feb-03 00:00:00.0000, 2.667094170735149E+08, -1.210413749849510E+08, 1.402797596668282E+07,
2460350.500000000, A.D. 2024-Feb-10 00:00:00.0000, 2.740860698779965E+08, -1.093022857109652E+08, 1.519572754920533E+07,
2460357.500000000, A.D. 2024-Feb-17 00:00:00.0000, 2.809470279559635E+08, -9.735741209465165E+07, 1.633489211989902E+07,
2460364.500000000, A.D. 2024-Feb-24 00:00:00.0000, 2.872916211314520E+08, -8.523346877005070E+07, 1.744403777510891E+07,
2460371.500000000, A.D. 2024-Mar-02 00:00:00.0000, 2.931206871682456E+08, -7.295644667463166E+07, 1.852188472346943E+07,
2460378.500000000, A.D. 2024-Mar-09 00:00:00.0000, 2.984364514363734E+08, -6.055153390789378E+07, 1.956730018924145E+07,
2460385.500000000, A.D. 2024-Mar-16 00:00:00.0000, 3.032424070227967E+08, -4.804305220283566E+07, 2.057929244913911E+07,
2460392.500000000, A.D. 2024-Mar-23 00:00:00.0000, 3.075431968827387E+08, -3.545440679161804E+07, 2.155700428927958E+07,
2460399.500000000, A.D. 2024-Mar-30 00:00:00.0000, 3.113444972186386E+08, -2.280804847098000E+07, 2.249970625984850E+07,
2460406.500000000, A.D. 2024-Apr-06 00:00:00.0000, 3.146529034903069E+08, -1.012544995695556E+07, 2.340678958360252E+07,
2460413.500000000, A.D. 2024-Apr-13 00:00:00.0000, 3.174758234869266E+08, 2.572905612861863E+06, 2.427775859446130E+07,
2460420.500000000, A.D. 2024-Apr-20 00:00:00.0000, 3.198213771574653E+08, 1.526752800101910E+07, 2.511222312747974E+07,
2460427.500000000, A.D. 2024-Apr-27 00:00:00.0000, 3.216983021256865E+08, 2.793991570744416E+07, 2.590989105008904E+07,
2460434.500000000, A.D. 2024-May-04 00:00:00.0000, 3.231158652416776E+08, 4.057254481413171E+07, 2.667056094838808E+07,
2460441.500000000, A.D. 2024-May-11 00:00:00.0000, 3.240837805277610E+08, 5.314885185871997E+07, 2.739411500430635E+07,
2460448.500000000, A.D. 2024-May-18 00:00:00.0000, 3.246121336054723E+08, 6.565321179295652E+07, 2.808051211319518E+07,
2460455.500000000, A.D. 2024-May-25 00:00:00.0000, 3.247113125362043E+08, 7.807091195290759E+07, 2.872978128321340E+07,
2460462.500000000, A.D. 2024-Jun-01 00:00:00.0000, 3.243919449599081E+08, 9.038812281614718E+07, 2.934201533841470E+07,
2460469.500000000, A.D. 2024-Jun-08 00:00:00.0000, 3.236648415354926E+08, 1.025918662591404E+08, 2.991736492152613E+07,
2460476.500000000, A.D. 2024-Jun-15 00:00:00.0000, 3.225409457871993E+08, 1.146699825047543E+08, 3.045603281439353E+07,
2460483.500000000, A.D. 2024-Jun-22 00:00:00.0000, 3.210312890188996E+08, 1.266110974999397E+08, 3.095826876711471E+07,
2460490.500000000, A.D. 2024-Jun-29 00:00:00.0000, 3.191469478329173E+08, 1.384045893958058E+08, 3.142436488206699E+07,
2460497.500000000, A.D. 2024-Jul-06 00:00:00.0000, 3.168990065551134E+08, 1.500405520714566E+08, 3.185465110405904E+07,
2460504.500000000, A.D. 2024-Jul-13 00:00:00.0000, 3.142985261603115E+08, 1.615097588676548E+08, 3.224949085833456E+07,
2460511.500000000, A.D. 2024-Jul-20 00:00:00.0000, 3.113565173608502E+08, 1.728036279659789E+08, 3.260927710024070E+07,
2460518.500000000, A.D. 2024-Jul-27 00:00:00.0000, 3.080839168645956E+08, 1.839141886889271E+08, 3.293442874493035E+07,
2460525.500000000, A.D. 2024-Aug-03 00:00:00.0000, 3.044915667518225E+08, 1.948340485334553E+08, 3.322538740651792E+07,
2460532.500000000, A.D. 2024-Aug-10 00:00:00.0000, 3.005901968287164E+08, 2.055563610799889E+08, 3.348261441512610E+07,
2460539.500000000, A.D. 2024-Aug-17 00:00:00.0000, 2.963904097140719E+08, 2.160747949100801E+08, 3.370658809271172E+07,
2460546.500000000, A.D. 2024-Aug-24 00:00:00.0000, 2.919026684147594E+08, 2.263835035920451E+08, 3.389780126662041E+07,
2460553.500000000, A.D. 2024-Aug-31 00:00:00.0000, 2.871372862526488E+08, 2.364770967295733E+08, 3.405675898880978E+07,
2460560.500000000, A.D. 2024-Sep-07 00:00:00.0000, 2.821044192757328E+08, 2.463506122346562E+08, 3.418397642153300E+07,
2460567.500000000, A.D. 2024-Sep-14 00:00:00.0000, 2.768140610244565E+08, 2.559994908349678E+08, 3.427997694693314E+07,
2460574.500000000, A.D. 2024-Sep-21 00:00:00.0000, 2.712760374226394E+08, 2.654195532260092E+08, 3.434529070427711E+07,
2460581.500000000, A.D. 2024-Sep-28 00:00:00.0000, 2.655000011227295E+08, 2.746069766337277E+08, 3.438045332230286E+07,
2460588.500000000, A.D. 2024-Oct-05 00:00:00.0000, 2.594954288174333E+08, 2.835582707722486E+08, 3.438600449767913E+07,
2460595.500000000, A.D. 2024-Oct-12 00:00:00.0000, 2.532716210099287E+08, 2.922702561451489E+08, 3.436248668268077E+07,
2460602.500000000, A.D. 2024-Oct-19 00:00:00.0000, 2.468377023555862E+08, 3.007400443835672E+08, 3.431044400818452E+07,
2460609.500000000, A.D. 2024-Oct-26 00:00:00.0000, 2.402026224218899E+08, 3.089650197811133E+08, 3.423042136837015E+07,
2460616.500000000, A.D. 2024-Nov-02 00:00:00.0000, 2.333751570161072E+08, 3.169428218348622E+08, 3.412296362099840E+07,
2460623.500000000, A.D. 2024-Nov-09 00:00:00.0000, 2.263639100805375E+08, 3.246713287678874E+08, 3.398861488625520E+07,
2460630.500000000, A.D. 2024-Nov-16 00:00:00.0000, 2.191773160940798E+08, 3.321486419866133E+08, 3.382791793254058E+07,
2460637.500000000, A.D. 2024-Nov-23 00:00:00.0000, 2.118236429484034E+08, 3.393730713757516E+08, 3.364141363221750E+07,
2460644.500000000, A.D. 2024-Nov-30 00:00:00.0000, 2.043109954363944E+08, 3.463431213421148E+08, 3.342964045698810E+07,
2460651.500000000, A.D. 2024-Dec-07 00:00:00.0000, 1.966473197104035E+08, 3.530574779843680E+08, 3.319313400204584E+07,
2460658.500000000, A.D. 2024-Dec-14 00:00:00.0000, 1.888404079687047E+08, 3.595149985693775E+08, 3.293242669596384E+07,
2460665.500000000, A.D. 2024-Dec-21 00:00:00.0000, 1.808979010026927E+08, 3.657147020292425E+08, 3.264804780172415E+07,
2460672.500000000, A.D. 2024-Dec-28 00:00:00.0000, 1.728272905339784E+08, 3.716557574732608E+08, 3.234052328127345E+07,
2460679.500000000, A.D. 2025-Jan-04 00:00:00.0000, 1.646359239075355E+08, 3.773374730548682E+08, 3.201037547555260E+07,
2460686.500000000, A.D. 2025-Jan-11 00:00:00.0000, 1.563310092913581E+08, 3.827592868106317E+08, 3.165812289763612E+07,
2460693.500000000, A.D. 2025-Jan-18 00:00:00.0000, 1.479196204368419E+08, 3.879207585098838E+08, 3.128428014323249E+07,
2460700.500000000, A.D. 2025-Jan-25 00:00:00.0000, 1.394087012163816E+08, 3.928215620016445E+08, 3.088935785341418E+07,
2460707.500000000, A.D. 2025-Feb-01 00:00:00.0000, 1.308050701034915E+08, 3.974614779945461E+08, 3.047386270662466E+07,
2460714.500000000, A.D. 2025-Feb-08 00:00:00.0000, 1.221154246338968E+08, 4.018403872599229E+08, 3.003829743393758E+07,
$$EOE